GLOBALSTAR M057 [-]     
1 25943U 99058A   24072.78535750 -.00000066  00000+0  24891-3 0  9998
2 25943  51.9963 217.6065 0003302 130.6426 229.4711 12.24781618110395
GLOBALSTAR M031 [-]     
1 25946U 99058D   24073.06408005  .00000004  00000+0  96443-3 0  9998
2 25946  51.9971 308.3631 0001329 357.2102 181.7396 12.16004392108449
GLOBALSTAR M039 [-]     
1 25961U 99062A   24072.69551857 -.00000068  00000+0  19842-3 0  9991
2 25961  51.9822 234.2801 0003367  58.3994 301.7201 12.62284670121937
GLOBALSTAR M034 [-]     
1 25962U 99062B   24072.94254810 -.00000022  00000+0  93894-3 0  9998
2 25962  51.9860 130.3330 0013953 248.2806 283.4626 11.79425123 83961
GLOBALSTAR M029 [-]     
1 25963U 99062C   24072.83915263 -.00000069  00000+0  21500-3 0  9999
2 25963  51.9782 263.6786 0001728 302.0646  72.8372 11.99875070113748
GLOBALSTAR M061 [-]     
1 25964U 99062D   24073.08403667 -.00000078  00000+0  34527-4 0  9992
2 25964  51.9803 307.8930 0005925 170.9121 336.9334 11.76758611 67182
